[{"OBJECT_NAME":"STARLINK-35362","OBJECT_ID":"2025-224G","EPOCH":"2026-03-09T05:50:25.715616","MEAN_MOTION":15.3021877,"ECCENTRICITY":0.00012652,"INCLINATION":53.162,"RA_OF_ASC_NODE":13.5923,"ARG_OF_PERICENTER":231.4894,"MEAN_ANOMALY":128.5994,"EPHEMERIS_TYPE":0,"CLASSIFICATION_TYPE":"U","NORAD_CAT_ID":65888,"ELEMENT_SET_NO":999,"REV_AT_EPOCH":2475,"BSTAR":0.0015275517,"MEAN_MOTION_DOT":0.00045184,"MEAN_MOTION_DDOT":0},{"OBJECT_NAME":"KUIPER-00177","OBJECT_ID":"2026-030C","EPOCH":"2026-03-09T22:40:13.687104","MEAN_MOTION":15.35467467,"ECCENTRICITY":0.00021592,"INCLINATION":51.8837,"RA_OF_ASC_NODE":217.7875,"ARG_OF_PERICENTER":172.5497,"MEAN_ANOMALY":187.5522,"EPHEMERIS_TYPE":0,"CLASSIFICATION_TYPE":"U","NORAD_CAT_ID":67766,"ELEMENT_SET_NO":999,"REV_AT_EPOCH":513,"BSTAR":-0.015747205,"MEAN_MOTION_DOT":-0.00515419,"MEAN_MOTION_DDOT":0}]
